[{"OBJECT_NAME":"CANX-5","OBJECT_ID":"2014-034D","EPOCH":"2026-03-09T17:03:12.784896","MEAN_MOTION":14.81078391,"ECCENTRICITY":0.00123171,"INCLINATION":98.3278,"RA_OF_ASC_NODE":300.3368,"ARG_OF_PERICENTER":336.6034,"MEAN_ANOMALY":23.4615,"EPHEMERIS_TYPE":0,"CLASSIFICATION_TYPE":"U","NORAD_CAT_ID":40056,"ELEMENT_SET_NO":999,"REV_AT_EPOCH":62061,"BSTAR":0.00019034283,"MEAN_MOTION_DOT":1.421e-5,"MEAN_MOTION_DDOT":0},{"OBJECT_NAME":"DMSP 5D-2 F11 DEB","OBJECT_ID":"1991-082CQ","EPOCH":"2026-03-09T04:24:17.495712","MEAN_MOTION":14.80535874,"ECCENTRICITY":0.00217802,"INCLINATION":98.804,"RA_OF_ASC_NODE":157.6646,"ARG_OF_PERICENTER":309.7308,"MEAN_ANOMALY":80.4142,"EPHEMERIS_TYPE":0,"CLASSIFICATION_TYPE":"U","NORAD_CAT_ID":35534,"ELEMENT_SET_NO":999,"REV_AT_EPOCH":74495,"BSTAR":0.0048551764,"MEAN_MOTION_DOT":0.0003748,"MEAN_MOTION_DDOT":0}]
